[{"OBJECT_NAME":"STARLINK-34814","OBJECT_ID":"2025-167Y","EPOCH":"2026-03-09T21:43:11.129088","MEAN_MOTION":15.30212554,"ECCENTRICITY":0.00020906,"INCLINATION":53.1593,"RA_OF_ASC_NODE":25.6015,"ARG_OF_PERICENTER":101.9763,"MEAN_ANOMALY":258.1473,"EPHEMERIS_TYPE":0,"CLASSIFICATION_TYPE":"U","NORAD_CAT_ID":65100,"ELEMENT_SET_NO":999,"REV_AT_EPOCH":3351,"BSTAR":0.00099375595,"MEAN_MOTION_DOT":0.00029201,"MEAN_MOTION_DDOT":0},{"OBJECT_NAME":"CZ-6A DEB","OBJECT_ID":"2024-140JQ","EPOCH":"2026-03-09T16:05:49.477056","MEAN_MOTION":15.15394204,"ECCENTRICITY":0.00800164,"INCLINATION":89.0638,"RA_OF_ASC_NODE":284.0631,"ARG_OF_PERICENTER":105.771,"MEAN_ANOMALY":255.2376,"EPHEMERIS_TYPE":0,"CLASSIFICATION_TYPE":"U","NORAD_CAT_ID":60861,"ELEMENT_SET_NO":999,"REV_AT_EPOCH":8511,"BSTAR":0.0025246282,"MEAN_MOTION_DOT":0.00051962,"MEAN_MOTION_DDOT":0}]
